STARLINK-32567          
1 61930U 24207U   26068.96860080  .00024561  00000+0  89892-3 0  9999
2 61930  42.9999 276.7809 0000647 254.6199 105.4581 15.27586264 75399
XCUBE-1                 
1 62400U 24247Z   26068.48297321  .00009773  00000+0  36224-3 0  9994
2 62400  44.9938 117.7807 0005235 331.1499  28.9094 15.27910558 67702
